#dP2021  5 19  0  0  0.00000000      96 __u+U ITR00 FIT  IAC
## 2158 259200.00000000   900.00000000 59353 0.0000000000000
+  126   C01C02C03C04C05C06C07C08C09C10C11C12C13C14C16C19C20
+        C21C22C23C24C25C26C27C28C29C30C32C33C34C35C36C37C38
+        C39C40C41C42C43C44C45C46C60E01E02E03E04E05E07E08E09
+        E11E12E13E14E15E18E19E21E24E25E26E27E30E31E33E36G01
+        G02G03G04G05G06G07G08G09G10G12G13G14G15G16G17G18G19
+        G20G21G22G23G24G25G26G27G28G29G30G31G32J01J02J03J07
+        R01R02R03R04R05R06R07R08R09R10R11R12R13R14R15R16R17
+        R18R19R20R21R22R23R24  0  0  0  0  0  0  0  0  0  0
++        13 13 13 13 13  9  9  9  9  9  9  9  9  9  9  8  8
++         8  8  8  8  8  8  8  8  8  8  8  8  8  8  8  8 10
++         9  9  9  9  9  8  8  8 13  4  4  5  5  5  4  5  5
++         4  4  4  4  4  5  4  4  6  6  5  4  5  5  4  5  4
++         4  4  4  4  4  4  4  4  4  4  4  4  4  4  4  4  0
++         4  4  4  4  4  4  4  4  4  4  4  4  4  9  9  8 14
++         8  6  6  6  7 14  6  6  6 13  7  6  8  6  7  8  6
++         6  8  8  6  8 13  0  0  0  0  0  0  0  0  0  0  0
%c M  cc GPS ccc cccc cccc cccc cccc ccccc ccccc ccccc ccccc
%c cc cc ccc ccc cccc cccc cccc cccc ccccc ccccc ccccc ccccc
%f  0.0000000  0.000000000  0.00000000000  0.000000000000000
%f  0.0000000  0.000000000  0.00000000000  0.000000000000000
%i    0    0    0    0      0      0      0      0         0
%i    0    0    0    0      0      0      0      0         0
/* INFORMATION & ANALYSIS CENTER (IAC)            RAPID DATA
/* S/V CLOCKS ARE ALIGNED TO GNSS TIME                      
/* G:C1WC2W R:C1PC2P E:C1XC5X C:C2IC6I J:C1CC2S             
/* PCV:IGS14_2148 OL/AL:FES2004  NONE     YN ORB:CoN CLK:CoN
*  2021 05 19  7 30  0.00000000
PC01 -34306.957990  24493.026132     87.584495   -453.275878
PC02   4291.860571  41926.424561   -257.128079    666.586690
PC03 -14809.624440  39431.665932    677.320775   -287.729101
PC04 -39601.935953  14435.175969    560.591275     -5.617098
PC05  21848.800750  36020.535212   -340.444797   -131.010492
PC06 -18131.157963  20162.688158 -31929.559971    401.492527
PC07 -21380.624288  35862.652763   3487.288697    165.442481
PC08  -5141.426147  31443.702267  27919.991858   -890.569354
PC09   -792.961228  24638.693436 -33869.915352    512.971200
PC10  -9193.124299  37458.564043  16702.888699    -40.823021
PC11 -24389.959915 -11857.104394  -6441.577066    349.393230
PC12  -9386.408566 -16652.732239 -20296.023778    877.944625
PC13   3804.363049  38264.847167  17674.425517    266.447063
PC14 -15028.532008  -7094.190849  22439.205648    770.844961
PC16 -14165.543777  21308.494843 -33420.258763   -846.224074
PC19  20669.526534  -2385.695975 -18575.980661    840.278578
PC20   8423.234795  13783.054782 -22731.059797   -910.782194
PC21   9557.242063 -22523.134675  13469.948498   -940.078727
PC22  21360.230014 -17638.361845  -3515.710925   -955.363195
PC23 -12458.328542  13001.663284 -21312.661695   -910.928868
PC24 -11485.447195 -24346.097538  -7320.893497   -856.358744
PC25 -17294.285008  -6938.352306 -20771.132104   -914.779910
PC26   -599.829415 -26371.724214   9049.339030    905.008922
PC27  -1475.083937  15983.492692  22804.117273    534.060527
PC28 -20242.234353   6908.575752  17921.314957    -72.701986
PC29  27306.952550   5155.924346  -2533.121818    394.260267
PC30  18220.942553  15161.006282  14700.001353    467.518061
PC32  -9395.230279  22571.793474 -13419.007928   -931.962439
PC33 -20626.588560   2345.530573  18650.021881   -937.731847
PC34 -18827.647530 -15017.764531 -14132.333337   -670.162683
PC35  20242.897541  -7460.790172 -17689.406407   -274.016589
PC36  17135.121495   7747.041990  20642.394200   -726.617869
PC37   -615.027790  26117.218122  -9814.318481   -890.136658
PC38  -2667.589995  35021.182594  23439.823011    149.688782
PC39 -10062.262831  22855.294793 -33971.911086     31.182982
PC40 -18090.376389  35059.393856  14688.538159    162.404906
PC41 -21428.543580  17459.863028   3891.700767   -944.449293
PC42  -7790.150782 -14432.271698  22628.843409   -914.745179
PC43 -27269.909871  -5643.892763   1998.778589   -736.891983
PC44   1148.626384 -16131.730215 -22755.788780    195.347236
PC45  12276.259153 -13101.524877  21363.804845    444.041605
PC46  12001.482683  23827.124368   8246.102012    264.265023
PC60   7254.339858  41480.592762   1821.113729      0.450256
PE01   7218.390284 -28694.653899    787.052591  -1110.879290
PE02  -7143.825124  28724.642632   -670.289987    220.080779
PE03 -10225.531218  18499.061864 -20710.529024   -432.501512
PE04 -11485.977537 -13881.147141  23496.555686   -774.029380
PE05 -26293.610836  12327.232845  -5712.939369   -279.820854
PE07  26854.422399    939.577075 -12417.370095   -539.432157
PE08  11869.568160  13513.033863 -23504.147299   5999.801293
PE09 -26884.648293   -641.990932  12358.968491   5662.907449
PE11 -24410.623648 -11885.931128  11806.234923   5962.174173
PE12 -17466.391471 -22687.103268  -7561.195582   5203.404732
PE13  24427.641832  12148.854792 -11469.009541    416.594881
PE14   5653.077071 -20522.968187 -24567.740218  -1436.083041
PE15  17566.359779  22591.154905   7549.644157    813.497506
PE18   1742.431012  14972.010440  18198.474950  -1572.066594
PE19  12634.606720 -18238.305988  19605.178340    280.552795
PE21  16097.221647 -17729.789342  17395.670336   -665.734816
PE24 -15874.648353  -4941.157436 -24502.398127   -907.985776
PE25 -16149.281460  17547.585214 -17531.884230   -534.270831
PE26  16447.888116  -6193.091036 -23816.556338   1793.792693
PE27  16062.322852   3959.325271  24546.887830    -35.543186
PE30   5883.284771  23851.427453  16510.278541   2933.686903
PE31  -6582.471731 -23161.380999 -17210.966723   -481.311769
PE33   -394.956488 -19719.414588 -22074.197763   -468.762091
PE36 -16902.093725   5413.452502  23692.070001   -209.087269
PG01 -19447.000933 -10105.856057  14990.356796    684.825316
PG02  12639.844157  22440.727991   7019.953995   -605.432842
PG03 -15959.578040    218.615470  21124.831799   -167.988811
PG04 -26086.195729  -1558.100067   4930.358791   -196.843649
PG05   9007.334538  15265.373754 -19881.186471    -42.369487
PG06   2599.929904  21303.412156  15667.788637     17.250005
PG07 -15345.394118   4233.463009 -20978.143562    154.958586
PG08 -21908.483301  -6768.924718 -13671.183324    -21.759637
PG09 -24918.755071   7239.154349  -5787.881930   -346.353714
PG10  11568.455031 -23688.707824  -1532.797552   -124.908562
PG12  14961.077611   2957.008737  21476.653101    -43.088210
PG13  14235.575613  13046.981245 -18427.877124    133.872228
PG14 -12989.256433  23069.209095  -1934.871150     83.752231
PG15  22717.067445   5163.008564 -13433.792919   -148.387644
PG16  -3762.449138 -18884.969120 -18332.194726   -327.520468
PG17 -14125.112204  13138.909798  18682.606367    444.728330
PG18  12673.619120  -8143.503849 -21885.540524    349.997009
PG19      0.000000      0.000000      0.000000 999999.999999
PG20  14319.537810   6835.025057 -21315.598026    522.044040
PG21 -20811.682257 -14706.828228   9028.968154    119.153945
PG22 -12885.644807 -10403.965125  20983.849019   -610.620828
PG23  16182.844837 -17212.466344 -12108.111541    105.427479
PG24  20844.886178  13206.010786  10083.712643     86.427068
PG25  17373.470971 -10730.275474  16571.488748    139.927027
PG26   1642.868713 -24383.712219 -10117.399912     87.226842
PG27 -11863.578530 -12623.984395 -20414.003122   -132.577670
PG28  -9757.270967  24413.846621   5021.970146    568.973905
PG29  25526.102106  -4713.045041  -5794.798358   -349.551883
PG30  -5796.842467  16872.125564 -19546.095995   -427.971297
PG31  -4332.327599 -22446.573714  13037.479100   -118.127023
PG32  11062.469958 -14817.871392  19114.858236     20.926202
PJ01 -36220.953388  21117.103834    345.916714   -381.165903
PJ02 -21023.479547  31449.130281 -13907.651728      0.041625
PJ03 -28728.156422  22609.821636  26125.002150     -5.807579
PJ07 -25392.624299  33658.619338    -23.447682      0.000479
PR01 -19070.430452  16221.581623  -4830.674346     79.669060
PR02  -3391.198085  14111.652681 -20945.152867    479.170868
PR03  12959.141656   3689.654527 -21599.775263     36.212411
PR04  21694.382176  -8773.675053 -10114.178133     87.442239
PR05  18407.104320 -16185.951339   7042.507125     72.022747
PR06   1872.857212 -13895.639577  21300.537354    198.243975
PR07 -13538.822037  -3211.860967  21431.059785    -42.450149
PR08 -21745.452761   8730.787959  10160.213816    -59.067239
PR09  -2980.907273 -25301.790903  -1881.520999     -6.398876
PR10  -9428.605440 -16632.079109 -16856.875037    -70.771071
PR11 -10710.285078   2206.826560 -23034.340297     -5.140257
PR12  -5711.276719  19839.558130 -14968.843701    230.117438
PR13   2675.904830  25336.523396   1213.191507    -54.964930
PR14   9644.963248  15799.466622  17552.706046     64.430490
PR15  10815.287859  -2623.368903  22971.072838    103.758595
PR16   4937.900018 -20566.498136  14140.483940    -15.239335
PR17  21384.063216  13074.367945   4837.479230    425.305457
PR18  21946.699002   5069.490358 -11907.056621     77.042266
PR19  11785.845121  -4825.387577 -22105.852442   -144.292497
PR20  -7827.204507 -14147.803713 -19743.562019    -49.362605
PR21 -21784.409739 -12744.789287  -3625.168259   -210.026706
PR22 -21619.495698  -4624.873469  12793.156486   -113.407319
PR23  -5139.104878   9046.090501  23277.076828    385.945200
PR24  12367.032946 -22249.796499 -44611.349711 999999.999999
EOF
